{
  "type": "FeatureCollection",
  "features": [
    {
      "type": "Feature",
      "properties": {
        "norad_id": 66661,
        "name": "SNUGLITE-III",
        "group": "last-30-days",
        "lat": 76.44403238777745,
        "lon": 133.9218877356613,
        "alt_km": 589.572924070907,
        "timestamp": "2025-12-18T10:51:24.514706+00:00",
        "meta_object_name": "SNUGLITE-III",
        "meta_object_id": "2025-274M",
        "meta_epoch": "2025-12-17T18:19:15.612960",
        "meta_mean_motion": 14.9312536,
        "meta_eccentricity": 0.00131237,
        "meta_inclination": 97.7401,
        "meta_ra_of_asc_node": 278.9044,
        "meta_arg_of_pericenter": 263.5364,
        "meta_mean_anomaly": 96.4361,
        "meta_ephemeris_type": 0,
        "meta_classification_type": "U",
        "meta_norad_cat_id": 66661,
        "meta_element_set_no": 999,
        "meta_rev_at_epoch": 315,
        "meta_bstar": 0.00021831539,
        "meta_mean_motion_dot": 2.223e-05,
        "meta_mean_motion_ddot": 0,
        "tle_line1": "1 66661U 25274M   25351.76337515  .00002223  00000+0  21832-3 0  9995",
        "tle_line2": "2 66661  97.7401 278.9044 0013123 263.5364  96.4361 14.93125360  3150"
      },
      "geometry": {
        "type": "Point",
        "coordinates": [
          133.9218877356613,
          76.44403238777745
        ]
      }
    },
    {
      "type": "Feature",
      "properties": {
        "norad_id": 66662,
        "name": "2025-274N",
        "group": "last-30-days",
        "lat": 72.60578865000376,
        "lon": 125.31628029806338,
        "alt_km": 589.6170024487437,
        "timestamp": "2025-12-18T10:51:24.514717+00:00",
        "meta_object_name": "2025-274N",
        "meta_object_id": "2025-274N",
        "meta_epoch": "2025-12-17T18:18:05.839776",
        "meta_mean_motion": 14.93179706,
        "meta_eccentricity": 0.00135453,
        "meta_inclination": 97.74,
        "meta_ra_of_asc_node": 278.9058,
        "meta_arg_of_pericenter": 263.1312,
        "meta_mean_anomaly": 96.8367,
        "meta_ephemeris_type": 0,
        "meta_classification_type": "U",
        "meta_norad_cat_id": 66662,
        "meta_element_set_no": 999,
        "meta_rev_at_epoch": 315,
        "meta_bstar": 0.00023114602,
        "meta_mean_motion_dot": 2.36e-05,
        "meta_mean_motion_ddot": 0,
        "tle_line1": "1 66662U 25274N   25351.76256759  .00002360  00000+0  23115-3 0  9994",
        "tle_line2": "2 66662  97.7400 278.9058 0013545 263.1312  96.8367 14.93179706  3155"
      },
      "geometry": {
        "type": "Point",
        "coordinates": [
          125.31628029806338,
          72.60578865000376
        ]
      }
    },
    {
      "type": "Feature",
      "properties": {
        "norad_id": 66663,
        "name": "KSLV-II R/B",
        "group": "last-30-days",
        "lat": 72.72520164658384,
        "lon": -106.20473356434756,
        "alt_km": 595.4326132867172,
        "timestamp": "2025-12-18T10:51:24.514729+00:00",
        "meta_object_name": "KSLV-II R/B",
        "meta_object_id": "2025-274P",
        "meta_epoch": "2025-12-17T18:29:13.608960",
        "meta_mean_motion": 14.97394003,
        "meta_eccentricity": 0.00561379,
        "meta_inclination": 97.7429,
        "meta_ra_of_asc_node": 279.0651,
        "meta_arg_of_pericenter": 301.8455,
        "meta_mean_anomaly": 57.7309,
        "meta_ephemeris_type": 0,
        "meta_classification_type": "U",
        "meta_norad_cat_id": 66663,
        "meta_element_set_no": 999,
        "meta_rev_at_epoch": 316,
        "meta_bstar": 0.00050294981,
        "meta_mean_motion_dot": 5.976e-05,
        "meta_mean_motion_ddot": 0,
        "tle_line1": "1 66663U 25274P   25351.77029640  .00005976  00000+0  50295-3 0  9998",
        "tle_line2": "2 66663  97.7429 279.0651 0056137 301.8455  57.7309 14.97394003  3166"
      },
      "geometry": {
        "type": "Point",
        "coordinates": [
          -106.20473356434756,
          72.72520164658384
        ]
      }
    },
    {
      "type": "Feature",
      "properties": {
        "norad_id": 66664,
        "name": "SOYUZ-MS 28",
        "group": "last-30-days",
        "lat": -41.86956717379764,
        "lon": -20.567915890623947,
        "alt_km": 420.13507053115154,
        "timestamp": "2025-12-18T10:51:24.514741+00:00",
        "meta_object_name": "SOYUZ-MS 28",
        "meta_object_id": "2025-275A",
        "meta_epoch": "2025-12-17T19:54:10.621440",
        "meta_mean_motion": 15.49640803,
        "meta_eccentricity": 0.00031686,
        "meta_inclination": 51.6309,
        "meta_ra_of_asc_node": 117.2752,
        "meta_arg_of_pericenter": 263.8701,
        "meta_mean_anomaly": 96.1927,
        "meta_ephemeris_type": 0,
        "meta_classification_type": "U",
        "meta_norad_cat_id": 66664,
        "meta_element_set_no": 999,
        "meta_rev_at_epoch": 128,
        "meta_bstar": 0.00014328078,
        "meta_mean_motion_dot": 7.629e-05,
        "meta_mean_motion_ddot": 0,
        "tle_line1": "1 66664U 25275A   25351.82928960  .00007629  00000+0  14328-3 0  9993",
        "tle_line2": "2 66664  51.6309 117.2752 0003168 263.8701  96.1927 15.49640803  1289"
      },
      "geometry": {
        "type": "Point",
        "coordinates": [
          -20.567915890623947,
          -41.86956717379764
        ]
      }
    },
    {
      "type": "Feature",
      "properties": {
        "norad_id": 66791,
        "name": "STARLINK-35867",
        "group": "last-30-days",
        "lat": 21.84228165053585,
        "lon": 11.78020853227144,
        "alt_km": 352.8419260052824,
        "timestamp": "2025-12-18T10:51:24.514752+00:00",
        "meta_object_name": "STARLINK-35867",
        "meta_object_id": "2025-278A",
        "meta_epoch": "2025-12-17T22:00:01.999584",
        "meta_mean_motion": 15.73402159,
        "meta_eccentricity": 0.00013102,
        "meta_inclination": 42.9987,
        "meta_ra_of_asc_node": 220.4956,
        "meta_arg_of_pericenter": 269.6068,
        "meta_mean_anomaly": 81.5588,
        "meta_ephemeris_type": 0,
        "meta_classification_type": "U",
        "meta_norad_cat_id": 66791,
        "meta_element_set_no": 999,
        "meta_rev_at_epoch": 379,
        "meta_bstar": -0.015452525,
        "meta_mean_motion_dot": -0.01957776,
        "meta_mean_motion_ddot": 0,
        "tle_line1": "1 66791U 25278A   25351.91668981 -.01957776  00000+0 -15453-1 0  9999",
        "tle_line2": "2 66791  42.9987 220.4956 0001310 269.6068  81.5588 15.73402159  3791"
      },
      "geometry": {
        "type": "Point",
        "coordinates": [
          11.78020853227144,
          21.84228165053585
        ]
      }
    },
    {
      "type": "Feature",
      "properties": {
        "norad_id": 66792,
        "name": "STARLINK-35990",
        "group": "last-30-days",
        "lat": 20.656940465918783,
        "lon": 13.387135907954528,
        "alt_km": 353.3496372569225,
        "timestamp": "2025-12-18T10:51:24.514764+00:00",
        "meta_object_name": "STARLINK-35990",
        "meta_object_id": "2025-278B",
        "meta_epoch": "2025-12-17T22:00:01.999584",
        "meta_mean_motion": 15.73396405,
        "meta_eccentricity": 0.00017758,
        "meta_inclination": 42.9989,
        "meta_ra_of_asc_node": 220.4906,
        "meta_arg_of_pericenter": 276.7734,
        "meta_mean_anomaly": 76.3093,
        "meta_ephemeris_type": 0,
        "meta_classification_type": "U",
        "meta_norad_cat_id": 66792,
        "meta_element_set_no": 999,
        "meta_rev_at_epoch": 379,
        "meta_bstar": -0.015394172,
        "meta_mean_motion_dot": -0.019119,
        "meta_mean_motion_ddot": 0,
        "tle_line1": "1 66792U 25278B   25351.91668981 -.01911900  00000+0 -15394-1 0  9993",
        "tle_line2": "2 66792  42.9989 220.4906 0001775 276.7734  76.3093 15.73396405  3792"
      },
      "geometry": {
        "type": "Point",
        "coordinates": [
          13.387135907954528,
          20.656940465918783
        ]
      }
    },
    {
      "type": "Feature",
      "properties": {
        "norad_id": 66793,
        "name": "STARLINK-36051",
        "group": "last-30-days",
        "lat": 18.23758920223985,
        "lon": 16.534897548486935,
        "alt_km": 353.55848388231516,
        "timestamp": "2025-12-18T10:51:24.514775+00:00",
        "meta_object_name": "STARLINK-36051",
        "meta_object_id": "2025-278C",
        "meta_epoch": "2025-12-17T22:00:01.999584",
        "meta_mean_motion": 15.73364946,
        "meta_eccentricity": 0.00019086,
        "meta_inclination": 42.999,
        "meta_ra_of_asc_node": 220.4813,
        "meta_arg_of_pericenter": 272.0446,
        "meta_mean_anomaly": 84.8956,
        "meta_ephemeris_type": 0,
        "meta_classification_type": "U",
        "meta_norad_cat_id": 66793,
        "meta_element_set_no": 999,
        "meta_rev_at_epoch": 369,
        "meta_bstar": -0.015125798,
        "meta_mean_motion_dot": -0.01880935,
        "meta_mean_motion_ddot": 0,
        "tle_line1": "1 66793U 25278C   25351.91668981 -.01880935  00000+0 -15126-1 0  9990",
        "tle_line2": "2 66793  42.9990 220.4813 0001908 272.0446  84.8956 15.73364946  3695"
      },
      "geometry": {
        "type": "Point",
        "coordinates": [
          16.534897548486935,
          18.23758920223985
        ]
      }
    }
  ]
}